<?xml version="1.0" encoding="UTF-8"?>
<gpx xmlns="http://www.topografix.com/GPX/1/1" version="1.1" creator="Minimalist GPS Tracker">
	<trk>
		<name>Camping to home</name>
		<trkseg>
			<trkpt lat="18.877007" lon="98.875963">
				<ele>1031.958927</ele>
				<time>2019-01-20T02:21:59Z</time>
			</trkpt>
			<trkpt lat="18.876837" lon="98.876032">
				<ele>1058.206486</ele>
				<time>2019-01-20T02:23:28Z</time>
			</trkpt>
			<trkpt lat="18.876666" lon="98.876098">
				<ele>1058.321720</ele>
				<time>2019-01-20T02:23:37Z</time>
			</trkpt>
			<trkpt lat="18.876485" lon="98.876087">
				<ele>1059.550114</ele>
				<time>2019-01-20T02:23:45Z</time>
			</trkpt>
			<trkpt lat="18.876288" lon="98.876047">
				<ele>1060.289249</ele>
				<time>2019-01-20T02:23:52Z</time>
			</trkpt>
			<trkpt lat="18.876123" lon="98.875931">
				<ele>1059.411564</ele>
				<time>2019-01-20T02:24:14Z</time>
			</trkpt>
			<trkpt lat="18.875950" lon="98.875833">
				<ele>1064.074284</ele>
				<time>2019-01-20T02:24:56Z</time>
			</trkpt>
			<trkpt lat="18.875763" lon="98.875755">
				<ele>1064.470402</ele>
				<time>2019-01-20T02:25:04Z</time>
			</trkpt>
			<trkpt lat="18.875564" lon="98.875698">
				<ele>1064.697941</ele>
				<time>2019-01-20T02:25:12Z</time>
			</trkpt>
			<trkpt lat="18.875371" lon="98.875673">
				<ele>1065.260685</ele>
				<time>2019-01-20T02:25:20Z</time>
			</trkpt>
			<trkpt lat="18.875174" lon="98.875658">
				<ele>1066.714298</ele>
				<time>2019-01-20T02:25:32Z</time>
			</trkpt>
			<trkpt lat="18.874988" lon="98.875695">
				<ele>1067.274357</ele>
				<time>2019-01-20T02:25:41Z</time>
			</trkpt>
			<trkpt lat="18.874797" lon="98.875669">
				<ele>1067.755558</ele>
				<time>2019-01-20T02:25:48Z</time>
			</trkpt>
			<trkpt lat="18.874601" lon="98.875606">
				<ele>1069.408146</ele>
				<time>2019-01-20T02:25:54Z</time>
			</trkpt>
			<trkpt lat="18.874406" lon="98.875510">
				<ele>1070.026066</ele>
				<time>2019-01-20T02:26:01Z</time>
			</trkpt>
			<trkpt lat="18.874207" lon="98.875483">
				<ele>1071.060368</ele>
				<time>2019-01-20T02:26:08Z</time>
			</trkpt>
			<trkpt lat="18.874028" lon="98.875424">
				<ele>1072.241764</ele>
				<time>2019-01-20T02:26:13Z</time>
			</trkpt>
			<trkpt lat="18.873852" lon="98.875378">
				<ele>1073.040470</ele>
				<time>2019-01-20T02:26:19Z</time>
			</trkpt>
			<trkpt lat="18.873678" lon="98.875310">
				<ele>1074.210270</ele>
				<time>2019-01-20T02:26:26Z</time>
			</trkpt>
			<trkpt lat="18.873501" lon="98.875244">
				<ele>1074.368595</ele>
				<time>2019-01-20T02:26:32Z</time>
			</trkpt>
			<trkpt lat="18.873320" lon="98.875227">
				<ele>1080.206852</ele>
				<time>2019-01-20T02:27:39Z</time>
			</trkpt>
			<trkpt lat="18.873149" lon="98.875327">
				<ele>1081.619694</ele>
				<time>2019-01-20T02:27:55Z</time>
			</trkpt>
			<trkpt lat="18.872960" lon="98.875368">
				<ele>1083.770695</ele>
				<time>2019-01-20T02:28:33Z</time>
			</trkpt>
			<trkpt lat="18.872807" lon="98.875482">
				<ele>1082.723820</ele>
				<time>2019-01-20T02:28:42Z</time>
			</trkpt>
			<trkpt lat="18.872632" lon="98.875574">
				<ele>1080.995426</ele>
				<time>2019-01-20T02:28:54Z</time>
			</trkpt>
			<trkpt lat="18.872459" lon="98.875680">
				<ele>1081.197941</ele>
				<time>2019-01-20T02:29:02Z</time>
			</trkpt>
			<trkpt lat="18.872330" lon="98.875833">
				<ele>1080.122868</ele>
				<time>2019-01-20T02:29:13Z</time>
			</trkpt>
			<trkpt lat="18.872164" lon="98.875925">
				<ele>1075.405582</ele>
				<time>2019-01-20T02:29:29Z</time>
			</trkpt>
			<trkpt lat="18.872036" lon="98.876067">
				<ele>1072.238590</ele>
				<time>2019-01-20T02:29:42Z</time>
			</trkpt>
			<trkpt lat="18.871864" lon="98.876131">
				<ele>1066.634708</ele>
				<time>2019-01-20T02:30:09Z</time>
			</trkpt>
			<trkpt lat="18.871685" lon="98.876189">
				<ele>1065.597111</ele>
				<time>2019-01-20T02:30:19Z</time>
			</trkpt>
			<trkpt lat="18.871519" lon="98.876308">
				<ele>1063.884220</ele>
				<time>2019-01-20T02:30:28Z</time>
			</trkpt>
			<trkpt lat="18.871340" lon="98.876334">
				<ele>1055.004337</ele>
				<time>2019-01-20T02:31:09Z</time>
			</trkpt>
			<trkpt lat="18.871147" lon="98.876252">
				<ele>1054.277531</ele>
				<time>2019-01-20T02:31:19Z</time>
			</trkpt>
			<trkpt lat="18.870976" lon="98.876191">
				<ele>1051.860783</ele>
				<time>2019-01-20T02:31:53Z</time>
			</trkpt>
			<trkpt lat="18.870837" lon="98.876313">
				<ele>1051.269474</ele>
				<time>2019-01-20T02:32:02Z</time>
			</trkpt>
			<trkpt lat="18.870687" lon="98.876445">
				<ele>1038.603703</ele>
				<time>2019-01-20T02:32:10Z</time>
			</trkpt>
			<trkpt lat="18.870505" lon="98.876480">
				<ele>1033.971012</ele>
				<time>2019-01-20T02:32:20Z</time>
			</trkpt>
			<trkpt lat="18.870326" lon="98.876411">
				<ele>1030.567692</ele>
				<time>2019-01-20T02:32:26Z</time>
			</trkpt>
			<trkpt lat="18.870150" lon="98.876345">
				<ele>1028.329899</ele>
				<time>2019-01-20T02:32:32Z</time>
			</trkpt>
			<trkpt lat="18.869963" lon="98.876345">
				<ele>1025.400578</ele>
				<time>2019-01-20T02:32:42Z</time>
			</trkpt>
			<trkpt lat="18.869790" lon="98.876283">
				<ele>1021.941349</ele>
				<time>2019-01-20T02:32:50Z</time>
			</trkpt>
			<trkpt lat="18.869605" lon="98.876177">
				<ele>1019.726383</ele>
				<time>2019-01-20T02:32:57Z</time>
			</trkpt>
			<trkpt lat="18.869420" lon="98.876115">
				<ele>1017.736393</ele>
				<time>2019-01-20T02:33:04Z</time>
			</trkpt>
			<trkpt lat="18.869241" lon="98.876037">
				<ele>1015.392155</ele>
				<time>2019-01-20T02:33:12Z</time>
			</trkpt>
			<trkpt lat="18.869287" lon="98.876249">
				<ele>1008.881657</ele>
				<time>2019-01-20T02:33:24Z</time>
			</trkpt>
			<trkpt lat="18.869343" lon="98.876456">
				<ele>1004.779240</ele>
				<time>2019-01-20T02:33:33Z</time>
			</trkpt>
			<trkpt lat="18.869184" lon="98.876569">
				<ele>1001.368961</ele>
				<time>2019-01-20T02:33:49Z</time>
			</trkpt>
			<trkpt lat="18.869094" lon="98.876735">
				<ele>997.683781</ele>
				<time>2019-01-20T02:33:59Z</time>
			</trkpt>
			<trkpt lat="18.868976" lon="98.876884">
				<ele>994.444523</ele>
				<time>2019-01-20T02:34:09Z</time>
			</trkpt>
			<trkpt lat="18.868797" lon="98.876851">
				<ele>992.096867</ele>
				<time>2019-01-20T02:34:18Z</time>
			</trkpt>
			<trkpt lat="18.868714" lon="98.877039">
				<ele>987.563297</ele>
				<time>2019-01-20T02:34:41Z</time>
			</trkpt>
			<trkpt lat="18.868693" lon="98.877231">
				<ele>983.377995</ele>
				<time>2019-01-20T02:34:48Z</time>
			</trkpt>
			<trkpt lat="18.868545" lon="98.877402">
				<ele>981.416325</ele>
				<time>2019-01-20T02:34:55Z</time>
			</trkpt>
			<trkpt lat="18.868359" lon="98.877447">
				<ele>981.231754</ele>
				<time>2019-01-20T02:35:01Z</time>
			</trkpt>
			<trkpt lat="18.868288" lon="98.877632">
				<ele>977.127750</ele>
				<time>2019-01-20T02:35:13Z</time>
			</trkpt>
			<trkpt lat="18.868178" lon="98.877795">
				<ele>974.245304</ele>
				<time>2019-01-20T02:35:21Z</time>
			</trkpt>
			<trkpt lat="18.868007" lon="98.877910">
				<ele>972.529972</ele>
				<time>2019-01-20T02:35:29Z</time>
			</trkpt>
			<trkpt lat="18.867854" lon="98.878050">
				<ele>971.118351</ele>
				<time>2019-01-20T02:35:35Z</time>
			</trkpt>
			<trkpt lat="18.867891" lon="98.878243">
				<ele>967.840275</ele>
				<time>2019-01-20T02:35:44Z</time>
			</trkpt>
			<trkpt lat="18.867963" lon="98.878419">
				<ele>965.793888</ele>
				<time>2019-01-20T02:35:51Z</time>
			</trkpt>
			<trkpt lat="18.867920" lon="98.878623">
				<ele>962.794498</ele>
				<time>2019-01-20T02:36:00Z</time>
			</trkpt>
			<trkpt lat="18.867891" lon="98.878815">
				<ele>960.224918</ele>
				<time>2019-01-20T02:36:06Z</time>
			</trkpt>
			<trkpt lat="18.867923" lon="98.879023">
				<ele>957.371525</ele>
				<time>2019-01-20T02:36:14Z</time>
			</trkpt>
			<trkpt lat="18.867979" lon="98.879209">
				<ele>954.278019</ele>
				<time>2019-01-20T02:36:24Z</time>
			</trkpt>
			<trkpt lat="18.867872" lon="98.879384">
				<ele>952.766544</ele>
				<time>2019-01-20T02:36:30Z</time>
			</trkpt>
			<trkpt lat="18.867765" lon="98.879567">
				<ele>949.510685</ele>
				<time>2019-01-20T02:36:38Z</time>
			</trkpt>
			<trkpt lat="18.867691" lon="98.879755">
				<ele>948.440983</ele>
				<time>2019-01-20T02:36:46Z</time>
			</trkpt>
			<trkpt lat="18.867687" lon="98.879958">
				<ele>944.621403</ele>
				<time>2019-01-20T02:36:55Z</time>
			</trkpt>
			<trkpt lat="18.867640" lon="98.880154">
				<ele>941.880070</ele>
				<time>2019-01-20T02:37:03Z</time>
			</trkpt>
			<trkpt lat="18.867542" lon="98.880334">
				<ele>939.274357</ele>
				<time>2019-01-20T02:37:11Z</time>
			</trkpt>
			<trkpt lat="18.867449" lon="98.880497">
				<ele>936.177189</ele>
				<time>2019-01-20T02:37:18Z</time>
			</trkpt>
			<trkpt lat="18.867373" lon="98.880698">
				<ele>934.212711</ele>
				<time>2019-01-20T02:37:24Z</time>
			</trkpt>
			<trkpt lat="18.867276" lon="98.880893">
				<ele>932.184269</ele>
				<time>2019-01-20T02:37:30Z</time>
			</trkpt>
			<trkpt lat="18.867211" lon="98.881071">
				<ele>929.608585</ele>
				<time>2019-01-20T02:37:36Z</time>
			</trkpt>
			<trkpt lat="18.867177" lon="98.881264">
				<ele>927.597599</ele>
				<time>2019-01-20T02:37:41Z</time>
			</trkpt>
			<trkpt lat="18.867135" lon="98.881462">
				<ele>924.081120</ele>
				<time>2019-01-20T02:37:48Z</time>
			</trkpt>
			<trkpt lat="18.867073" lon="98.881641">
				<ele>918.586735</ele>
				<time>2019-01-20T02:37:55Z</time>
			</trkpt>
			<trkpt lat="18.866926" lon="98.881757">
				<ele>913.751774</ele>
				<time>2019-01-20T02:38:02Z</time>
			</trkpt>
			<trkpt lat="18.866733" lon="98.881838">
				<ele>910.152531</ele>
				<time>2019-01-20T02:38:10Z</time>
			</trkpt>
			<trkpt lat="18.866552" lon="98.881933">
				<ele>904.006046</ele>
				<time>2019-01-20T02:38:17Z</time>
			</trkpt>
			<trkpt lat="18.866390" lon="98.882079">
				<ele>898.325748</ele>
				<time>2019-01-20T02:38:24Z</time>
			</trkpt>
			<trkpt lat="18.866232" lon="98.882195">
				<ele>879.636417</ele>
				<time>2019-01-20T02:38:32Z</time>
			</trkpt>
			<trkpt lat="18.866394" lon="98.882289">
				<ele>873.222721</ele>
				<time>2019-01-20T02:39:09Z</time>
			</trkpt>
			<trkpt lat="18.866586" lon="98.882348">
				<ele>874.784611</ele>
				<time>2019-01-20T02:39:17Z</time>
			</trkpt>
			<trkpt lat="18.866766" lon="98.882414">
				<ele>875.611759</ele>
				<time>2019-01-20T02:39:25Z</time>
			</trkpt>
			<trkpt lat="18.866860" lon="98.882602">
				<ele>875.249943</ele>
				<time>2019-01-20T02:39:34Z</time>
			</trkpt>
			<trkpt lat="18.866962" lon="98.882775">
				<ele>874.170841</ele>
				<time>2019-01-20T02:39:43Z</time>
			</trkpt>
			<trkpt lat="18.867073" lon="98.882950">
				<ele>871.495304</ele>
				<time>2019-01-20T02:39:53Z</time>
			</trkpt>
			<trkpt lat="18.867048" lon="98.883141">
				<ele>869.253117</ele>
				<time>2019-01-20T02:39:59Z</time>
			</trkpt>
			<trkpt lat="18.866992" lon="98.883331">
				<ele>867.790226</ele>
				<time>2019-01-20T02:40:04Z</time>
			</trkpt>
			<trkpt lat="18.866892" lon="98.883498">
				<ele>866.233829</ele>
				<time>2019-01-20T02:40:10Z</time>
			</trkpt>
			<trkpt lat="18.866798" lon="98.883667">
				<ele>863.992619</ele>
				<time>2019-01-20T02:40:16Z</time>
			</trkpt>
			<trkpt lat="18.866796" lon="98.883890">
				<ele>861.176945</ele>
				<time>2019-01-20T02:40:23Z</time>
			</trkpt>
			<trkpt lat="18.866826" lon="98.884088">
				<ele>859.732731</ele>
				<time>2019-01-20T02:40:29Z</time>
			</trkpt>
			<trkpt lat="18.867006" lon="98.884104">
				<ele>854.906193</ele>
				<time>2019-01-20T02:41:03Z</time>
			</trkpt>
			<trkpt lat="18.867159" lon="98.883990">
				<ele>852.897038</ele>
				<time>2019-01-20T02:41:10Z</time>
			</trkpt>
			<trkpt lat="18.867309" lon="98.883864">
				<ele>849.849796</ele>
				<time>2019-01-20T02:41:18Z</time>
			</trkpt>
			<trkpt lat="18.867483" lon="98.883800">
				<ele>848.991276</ele>
				<time>2019-01-20T02:41:51Z</time>
			</trkpt>
			<trkpt lat="18.867675" lon="98.883797">
				<ele>845.385929</ele>
				<time>2019-01-20T02:41:59Z</time>
			</trkpt>
			<trkpt lat="18.867850" lon="98.883872">
				<ele>843.598576</ele>
				<time>2019-01-20T02:42:05Z</time>
			</trkpt>
			<trkpt lat="18.868018" lon="98.883973">
				<ele>841.164249</ele>
				<time>2019-01-20T02:42:12Z</time>
			</trkpt>
			<trkpt lat="18.868187" lon="98.884045">
				<ele>839.064274</ele>
				<time>2019-01-20T02:42:23Z</time>
			</trkpt>
			<trkpt lat="18.868271" lon="98.884216">
				<ele>837.732853</ele>
				<time>2019-01-20T02:42:32Z</time>
			</trkpt>
			<trkpt lat="18.868311" lon="98.884417">
				<ele>837.850285</ele>
				<time>2019-01-20T02:42:38Z</time>
			</trkpt>
			<trkpt lat="18.868410" lon="98.884576">
				<ele>837.801212</ele>
				<time>2019-01-20T02:42:45Z</time>
			</trkpt>
			<trkpt lat="18.868572" lon="98.884661">
				<ele>836.615421</ele>
				<time>2019-01-20T02:42:52Z</time>
			</trkpt>
			<trkpt lat="18.868710" lon="98.884820">
				<ele>834.869083</ele>
				<time>2019-01-20T02:42:58Z</time>
			</trkpt>
			<trkpt lat="18.868803" lon="98.884984">
				<ele>831.846500</ele>
				<time>2019-01-20T02:43:04Z</time>
			</trkpt>
			<trkpt lat="18.868898" lon="98.885162">
				<ele>829.947941</ele>
				<time>2019-01-20T02:43:10Z</time>
			</trkpt>
			<trkpt lat="18.869003" lon="98.885337">
				<ele>829.825626</ele>
				<time>2019-01-20T02:43:16Z</time>
			</trkpt>
			<trkpt lat="18.869154" lon="98.885463">
				<ele>829.688786</ele>
				<time>2019-01-20T02:43:22Z</time>
			</trkpt>
			<trkpt lat="18.869289" lon="98.885593">
				<ele>830.429142</ele>
				<time>2019-01-20T02:43:27Z</time>
			</trkpt>
			<trkpt lat="18.869469" lon="98.885681">
				<ele>829.863956</ele>
				<time>2019-01-20T02:43:34Z</time>
			</trkpt>
			<trkpt lat="18.869618" lon="98.885789">
				<ele>828.757511</ele>
				<time>2019-01-20T02:43:40Z</time>
			</trkpt>
			<trkpt lat="18.869784" lon="98.885908">
				<ele>827.976017</ele>
				<time>2019-01-20T02:43:46Z</time>
			</trkpt>
			<trkpt lat="18.869917" lon="98.886061">
				<ele>827.976383</ele>
				<time>2019-01-20T02:43:53Z</time>
			</trkpt>
			<trkpt lat="18.869937" lon="98.886256">
				<ele>826.504093</ele>
				<time>2019-01-20T02:44:01Z</time>
			</trkpt>
			<trkpt lat="18.869934" lon="98.886448">
				<ele>825.871769</ele>
				<time>2019-01-20T02:44:09Z</time>
			</trkpt>
			<trkpt lat="18.869933" lon="98.886643">
				<ele>824.074772</ele>
				<time>2019-01-20T02:44:18Z</time>
			</trkpt>
			<trkpt lat="18.869892" lon="98.886832">
				<ele>817.670475</ele>
				<time>2019-01-20T02:45:04Z</time>
			</trkpt>
			<trkpt lat="18.869907" lon="98.887025">
				<ele>814.200382</ele>
				<time>2019-01-20T02:45:17Z</time>
			</trkpt>
			<trkpt lat="18.870013" lon="98.887215">
				<ele>812.324650</ele>
				<time>2019-01-20T02:45:27Z</time>
			</trkpt>
			<trkpt lat="18.870157" lon="98.887342">
				<ele>810.354069</ele>
				<time>2019-01-20T02:45:35Z</time>
			</trkpt>
			<trkpt lat="18.870308" lon="98.887450">
				<ele>807.327457</ele>
				<time>2019-01-20T02:45:51Z</time>
			</trkpt>
			<trkpt lat="18.870445" lon="98.887589">
				<ele>805.675846</ele>
				<time>2019-01-20T02:46:01Z</time>
			</trkpt>
			<trkpt lat="18.870585" lon="98.887742">
				<ele>803.989689</ele>
				<time>2019-01-20T02:46:09Z</time>
			</trkpt>
			<trkpt lat="18.870693" lon="98.887898">
				<ele>802.693790</ele>
				<time>2019-01-20T02:46:15Z</time>
			</trkpt>
			<trkpt lat="18.870828" lon="98.888025">
				<ele>800.324650</ele>
				<time>2019-01-20T02:46:20Z</time>
			</trkpt>
			<trkpt lat="18.870944" lon="98.888171">
				<ele>798.422550</ele>
				<time>2019-01-20T02:46:27Z</time>
			</trkpt>
			<trkpt lat="18.871108" lon="98.888306">
				<ele>795.954288</ele>
				<time>2019-01-20T02:46:37Z</time>
			</trkpt>
			<trkpt lat="18.871289" lon="98.888281">
				<ele>793.011906</ele>
				<time>2019-01-20T02:46:44Z</time>
			</trkpt>
			<trkpt lat="18.871482" lon="98.888209">
				<ele>790.181461</ele>
				<time>2019-01-20T02:46:50Z</time>
			</trkpt>
			<trkpt lat="18.871669" lon="98.888213">
				<ele>787.844181</ele>
				<time>2019-01-20T02:46:59Z</time>
			</trkpt>
			<trkpt lat="18.871835" lon="98.888291">
				<ele>785.641666</ele>
				<time>2019-01-20T02:47:07Z</time>
			</trkpt>
			<trkpt lat="18.872031" lon="98.888341">
				<ele>784.310490</ele>
				<time>2019-01-20T02:47:14Z</time>
			</trkpt>
			<trkpt lat="18.872207" lon="98.888416">
				<ele>780.922794</ele>
				<time>2019-01-20T02:47:20Z</time>
			</trkpt>
			<trkpt lat="18.872373" lon="98.888538">
				<ele>779.532902</ele>
				<time>2019-01-20T02:47:26Z</time>
			</trkpt>
			<trkpt lat="18.872541" lon="98.888623">
				<ele>777.443058</ele>
				<time>2019-01-20T02:47:32Z</time>
			</trkpt>
			<trkpt lat="18.872691" lon="98.888741">
				<ele>776.090519</ele>
				<time>2019-01-20T02:47:39Z</time>
			</trkpt>
			<trkpt lat="18.872837" lon="98.888912">
				<ele>774.706120</ele>
				<time>2019-01-20T02:47:46Z</time>
			</trkpt>
			<trkpt lat="18.872979" lon="98.889079">
				<ele>772.892033</ele>
				<time>2019-01-20T02:47:51Z</time>
			</trkpt>
			<trkpt lat="18.873171" lon="98.889192">
				<ele>772.298771</ele>
				<time>2019-01-20T02:47:56Z</time>
			</trkpt>
			<trkpt lat="18.873337" lon="98.889276">
				<ele>744.095890</ele>
				<time>2019-01-20T02:48:01Z</time>
			</trkpt>
			<trkpt lat="18.873519" lon="98.889340">
				<ele>745.156193</ele>
				<time>2019-01-20T02:48:07Z</time>
			</trkpt>
			<trkpt lat="18.873673" lon="98.889479">
				<ele>746.252140</ele>
				<time>2019-01-20T02:48:13Z</time>
			</trkpt>
			<trkpt lat="18.873810" lon="98.889616">
				<ele>745.884220</ele>
				<time>2019-01-20T02:48:20Z</time>
			</trkpt>
			<trkpt lat="18.873909" lon="98.889796">
				<ele>745.777287</ele>
				<time>2019-01-20T02:48:26Z</time>
			</trkpt>
			<trkpt lat="18.873960" lon="98.890012">
				<ele>746.055851</ele>
				<time>2019-01-20T02:48:31Z</time>
			</trkpt>
			<trkpt lat="18.874067" lon="98.890183">
				<ele>745.710880</ele>
				<time>2019-01-20T02:48:39Z</time>
			</trkpt>
			<trkpt lat="18.874249" lon="98.890251">
				<ele>743.484196</ele>
				<time>2019-01-20T02:48:45Z</time>
			</trkpt>
			<trkpt lat="18.874419" lon="98.890316">
				<ele>741.887516</ele>
				<time>2019-01-20T02:48:50Z</time>
			</trkpt>
			<trkpt lat="18.874564" lon="98.890449">
				<ele>741.428043</ele>
				<time>2019-01-20T02:48:58Z</time>
			</trkpt>
			<trkpt lat="18.874653" lon="98.890617">
				<ele>738.892765</ele>
				<time>2019-01-20T02:49:03Z</time>
			</trkpt>
			<trkpt lat="18.874717" lon="98.890827">
				<ele>738.607365</ele>
				<time>2019-01-20T02:49:09Z</time>
			</trkpt>
			<trkpt lat="18.874791" lon="98.891018">
				<ele>737.726994</ele>
				<time>2019-01-20T02:49:15Z</time>
			</trkpt>
			<trkpt lat="18.874846" lon="98.891237">
				<ele>733.981632</ele>
				<time>2019-01-20T02:49:23Z</time>
			</trkpt>
			<trkpt lat="18.874911" lon="98.891441">
				<ele>730.511662</ele>
				<time>2019-01-20T02:49:29Z</time>
			</trkpt>
			<trkpt lat="18.874896" lon="98.891643">
				<ele>726.602726</ele>
				<time>2019-01-20T02:49:37Z</time>
			</trkpt>
			<trkpt lat="18.874825" lon="98.891838">
				<ele>720.945988</ele>
				<time>2019-01-20T02:49:47Z</time>
			</trkpt>
			<trkpt lat="18.874699" lon="98.891982">
				<ele>718.811710</ele>
				<time>2019-01-20T02:49:54Z</time>
			</trkpt>
			<trkpt lat="18.874531" lon="98.892106">
				<ele>718.845768</ele>
				<time>2019-01-20T02:50:02Z</time>
			</trkpt>
			<trkpt lat="18.874387" lon="98.892234">
				<ele>717.192081</ele>
				<time>2019-01-20T02:50:09Z</time>
			</trkpt>
			<trkpt lat="18.874219" lon="98.892328">
				<ele>713.861515</ele>
				<time>2019-01-20T02:50:16Z</time>
			</trkpt>
			<trkpt lat="18.874154" lon="98.892505">
				<ele>707.538273</ele>
				<time>2019-01-20T02:50:23Z</time>
			</trkpt>
			<trkpt lat="18.874213" lon="98.892698">
				<ele>705.604435</ele>
				<time>2019-01-20T02:50:30Z</time>
			</trkpt>
			<trkpt lat="18.874282" lon="98.892884">
				<ele>701.849796</ele>
				<time>2019-01-20T02:50:38Z</time>
			</trkpt>
			<trkpt lat="18.874389" lon="98.893054">
				<ele>702.397038</ele>
				<time>2019-01-20T02:50:46Z</time>
			</trkpt>
			<trkpt lat="18.874509" lon="98.893202">
				<ele>699.272038</ele>
				<time>2019-01-20T02:50:54Z</time>
			</trkpt>
			<trkpt lat="18.874682" lon="98.893288">
				<ele>695.943302</ele>
				<time>2019-01-20T02:51:01Z</time>
			</trkpt>
			<trkpt lat="18.874869" lon="98.893369">
				<ele>691.502018</ele>
				<time>2019-01-20T02:51:08Z</time>
			</trkpt>
			<trkpt lat="18.875002" lon="98.893515">
				<ele>689.326603</ele>
				<time>2019-01-20T02:51:14Z</time>
			</trkpt>
			<trkpt lat="18.875188" lon="98.893534">
				<ele>689.162785</ele>
				<time>2019-01-20T02:51:21Z</time>
			</trkpt>
			<trkpt lat="18.875335" lon="98.893697">
				<ele>686.819889</ele>
				<time>2019-01-20T02:51:28Z</time>
			</trkpt>
			<trkpt lat="18.875388" lon="98.893918">
				<ele>683.643131</ele>
				<time>2019-01-20T02:51:34Z</time>
			</trkpt>
			<trkpt lat="18.875420" lon="98.894112">
				<ele>683.746769</ele>
				<time>2019-01-20T02:51:38Z</time>
			</trkpt>
			<trkpt lat="18.875425" lon="98.894314">
				<ele>680.253849</ele>
				<time>2019-01-20T02:51:45Z</time>
			</trkpt>
			<trkpt lat="18.875484" lon="98.894520">
				<ele>676.432560</ele>
				<time>2019-01-20T02:51:52Z</time>
			</trkpt>
			<trkpt lat="18.875622" lon="98.894651">
				<ele>673.924015</ele>
				<time>2019-01-20T02:51:58Z</time>
			</trkpt>
			<trkpt lat="18.875808" lon="98.894752">
				<ele>674.749699</ele>
				<time>2019-01-20T02:52:03Z</time>
			</trkpt>
			<trkpt lat="18.876000" lon="98.894830">
				<ele>671.691837</ele>
				<time>2019-01-20T02:52:06Z</time>
			</trkpt>
			<trkpt lat="18.876195" lon="98.894895">
				<ele>672.056828</ele>
				<time>2019-01-20T02:52:10Z</time>
			</trkpt>
			<trkpt lat="18.876390" lon="98.894975">
				<ele>671.289249</ele>
				<time>2019-01-20T02:52:15Z</time>
			</trkpt>
			<trkpt lat="18.876562" lon="98.895120">
				<ele>668.026798</ele>
				<time>2019-01-20T02:52:20Z</time>
			</trkpt>
			<trkpt lat="18.876719" lon="98.895254">
				<ele>670.847355</ele>
				<time>2019-01-20T02:52:29Z</time>
			</trkpt>
			<trkpt lat="18.876867" lon="98.895393">
				<ele>668.721134</ele>
				<time>2019-01-20T02:52:36Z</time>
			</trkpt>
			<trkpt lat="18.877010" lon="98.895541">
				<ele>668.151798</ele>
				<time>2019-01-20T02:52:43Z</time>
			</trkpt>
			<trkpt lat="18.877097" lon="98.895724">
				<ele>665.033024</ele>
				<time>2019-01-20T02:52:52Z</time>
			</trkpt>
			<trkpt lat="18.877190" lon="98.895931">
				<ele>663.243595</ele>
				<time>2019-01-20T02:52:58Z</time>
			</trkpt>
			<trkpt lat="18.877274" lon="98.896139">
				<ele>658.402287</ele>
				<time>2019-01-20T02:53:03Z</time>
			</trkpt>
			<trkpt lat="18.877336" lon="98.896355">
				<ele>658.079899</ele>
				<time>2019-01-20T02:53:06Z</time>
			</trkpt>
			<trkpt lat="18.877488" lon="98.896573">
				<ele>657.470890</ele>
				<time>2019-01-20T02:53:10Z</time>
			</trkpt>
			<trkpt lat="18.877592" lon="98.896769">
				<ele>658.561344</ele>
				<time>2019-01-20T02:53:14Z</time>
			</trkpt>
			<trkpt lat="18.877763" lon="98.896964">
				<ele>653.663517</ele>
				<time>2019-01-20T02:53:19Z</time>
			</trkpt>
			<trkpt lat="18.877905" lon="98.897159">
				<ele>654.368107</ele>
				<time>2019-01-20T02:53:23Z</time>
			</trkpt>
			<trkpt lat="18.878029" lon="98.897301">
				<ele>655.232243</ele>
				<time>2019-01-20T02:53:26Z</time>
			</trkpt>
			<trkpt lat="18.878159" lon="98.897462">
				<ele>655.580997</ele>
				<time>2019-01-20T02:53:29Z</time>
			</trkpt>
			<trkpt lat="18.878297" lon="98.897614">
				<ele>657.393742</ele>
				<time>2019-01-20T02:53:33Z</time>
			</trkpt>
			<trkpt lat="18.878401" lon="98.897836">
				<ele>656.113590</ele>
				<time>2019-01-20T02:53:37Z</time>
			</trkpt>
			<trkpt lat="18.878499" lon="98.898017">
				<ele>654.918156</ele>
				<time>2019-01-20T02:53:40Z</time>
			</trkpt>
			<trkpt lat="18.878570" lon="98.898200">
				<ele>654.175480</ele>
				<time>2019-01-20T02:53:45Z</time>
			</trkpt>
			<trkpt lat="18.878643" lon="98.898384">
				<ele>653.676212</ele>
				<time>2019-01-20T02:53:53Z</time>
			</trkpt>
			<trkpt lat="18.878692" lon="98.898574">
				<ele>654.332462</ele>
				<time>2019-01-20T02:53:59Z</time>
			</trkpt>
			<trkpt lat="18.878706" lon="98.898774">
				<ele>651.831120</ele>
				<time>2019-01-20T02:54:04Z</time>
			</trkpt>
			<trkpt lat="18.878852" lon="98.898901">
				<ele>647.915348</ele>
				<time>2019-01-20T02:54:12Z</time>
			</trkpt>
			<trkpt lat="18.879039" lon="98.899019">
				<ele>646.620548</ele>
				<time>2019-01-20T02:54:18Z</time>
			</trkpt>
			<trkpt lat="18.879200" lon="98.899115">
				<ele>646.786564</ele>
				<time>2019-01-20T02:54:21Z</time>
			</trkpt>
			<trkpt lat="18.879318" lon="98.899262">
				<ele>648.034122</ele>
				<time>2019-01-20T02:54:26Z</time>
			</trkpt>
			<trkpt lat="18.879434" lon="98.899426">
				<ele>645.287052</ele>
				<time>2019-01-20T02:54:32Z</time>
			</trkpt>
			<trkpt lat="18.879560" lon="98.899612">
				<ele>640.117863</ele>
				<time>2019-01-20T02:54:38Z</time>
			</trkpt>
			<trkpt lat="18.879645" lon="98.899794">
				<ele>638.176701</ele>
				<time>2019-01-20T02:54:44Z</time>
			</trkpt>
			<trkpt lat="18.879753" lon="98.900008">
				<ele>634.748966</ele>
				<time>2019-01-20T02:54:49Z</time>
			</trkpt>
			<trkpt lat="18.879863" lon="98.900203">
				<ele>628.425236</ele>
				<time>2019-01-20T02:54:53Z</time>
			</trkpt>
			<trkpt lat="18.880004" lon="98.900386">
				<ele>625.020695</ele>
				<time>2019-01-20T02:54:57Z</time>
			</trkpt>
			<trkpt lat="18.880152" lon="98.900546">
				<ele>624.150578</ele>
				<time>2019-01-20T02:55:02Z</time>
			</trkpt>
			<trkpt lat="18.880265" lon="98.900703">
				<ele>620.791935</ele>
				<time>2019-01-20T02:55:10Z</time>
			</trkpt>
			<trkpt lat="18.880247" lon="98.900894">
				<ele>615.328800</ele>
				<time>2019-01-20T02:55:20Z</time>
			</trkpt>
			<trkpt lat="18.880224" lon="98.901110">
				<ele>614.381290</ele>
				<time>2019-01-20T02:55:27Z</time>
			</trkpt>
			<trkpt lat="18.880212" lon="98.901324">
				<ele>612.303776</ele>
				<time>2019-01-20T02:55:30Z</time>
			</trkpt>
			<trkpt lat="18.880187" lon="98.901536">
				<ele>609.289982</ele>
				<time>2019-01-20T02:55:35Z</time>
			</trkpt>
			<trkpt lat="18.880119" lon="98.901737">
				<ele>607.129971</ele>
				<time>2019-01-20T02:55:40Z</time>
			</trkpt>
			<trkpt lat="18.879977" lon="98.901859">
				<ele>604.079189</ele>
				<time>2019-01-20T02:55:44Z</time>
			</trkpt>
			<trkpt lat="18.879892" lon="98.902050">
				<ele>603.777798</ele>
				<time>2019-01-20T02:55:48Z</time>
			</trkpt>
			<trkpt lat="18.879877" lon="98.902277">
				<ele>603.165615</ele>
				<time>2019-01-20T02:55:53Z</time>
			</trkpt>
			<trkpt lat="18.879940" lon="98.902474">
				<ele>599.527309</ele>
				<time>2019-01-20T02:56:02Z</time>
			</trkpt>
			<trkpt lat="18.880101" lon="98.902577">
				<ele>597.236294</ele>
				<time>2019-01-20T02:56:11Z</time>
			</trkpt>
			<trkpt lat="18.880308" lon="98.902646">
				<ele>596.338223</ele>
				<time>2019-01-20T02:56:18Z</time>
			</trkpt>
			<trkpt lat="18.880486" lon="98.902727">
				<ele>594.145107</ele>
				<time>2019-01-20T02:56:21Z</time>
			</trkpt>
			<trkpt lat="18.880663" lon="98.902788">
				<ele>591.604702</ele>
				<time>2019-01-20T02:56:25Z</time>
			</trkpt>
			<trkpt lat="18.880866" lon="98.902905">
				<ele>592.327236</ele>
				<time>2019-01-20T02:56:31Z</time>
			</trkpt>
			<trkpt lat="18.881049" lon="98.903011">
				<ele>589.971767</ele>
				<time>2019-01-20T02:56:36Z</time>
			</trkpt>
			<trkpt lat="18.881191" lon="98.903155">
				<ele>590.621181</ele>
				<time>2019-01-20T02:56:41Z</time>
			</trkpt>
			<trkpt lat="18.881358" lon="98.903239">
				<ele>594.370937</ele>
				<time>2019-01-20T02:56:49Z</time>
			</trkpt>
			<trkpt lat="18.881564" lon="98.903196">
				<ele>591.462368</ele>
				<time>2019-01-20T02:56:56Z</time>
			</trkpt>
			<trkpt lat="18.881762" lon="98.903092">
				<ele>589.931973</ele>
				<time>2019-01-20T02:57:00Z</time>
			</trkpt>
			<trkpt lat="18.881961" lon="98.903005">
				<ele>587.107021</ele>
				<time>2019-01-20T02:57:05Z</time>
			</trkpt>
			<trkpt lat="18.882124" lon="98.903129">
				<ele>582.486416</ele>
				<time>2019-01-20T02:58:41Z</time>
			</trkpt>
			<trkpt lat="18.882317" lon="98.903124">
				<ele>577.032070</ele>
				<time>2019-01-20T02:58:53Z</time>
			</trkpt>
			<trkpt lat="18.882332" lon="98.902917">
				<ele>575.795254</ele>
				<time>2019-01-20T02:59:01Z</time>
			</trkpt>
			<trkpt lat="18.882276" lon="98.902711">
				<ele>573.207607</ele>
				<time>2019-01-20T02:59:09Z</time>
			</trkpt>
			<trkpt lat="18.882168" lon="98.902540">
				<ele>572.512783</ele>
				<time>2019-01-20T02:59:18Z</time>
			</trkpt>
			<trkpt lat="18.882084" lon="98.902351">
				<ele>571.615688</ele>
				<time>2019-01-20T02:59:26Z</time>
			</trkpt>
			<trkpt lat="18.882055" lon="98.902152">
				<ele>569.567226</ele>
				<time>2019-01-20T02:59:35Z</time>
			</trkpt>
			<trkpt lat="18.882154" lon="98.901963">
				<ele>567.710049</ele>
				<time>2019-01-20T02:59:45Z</time>
			</trkpt>
			<trkpt lat="18.882290" lon="98.901812">
				<ele>567.957241</ele>
				<time>2019-01-20T02:59:51Z</time>
			</trkpt>
			<trkpt lat="18.882422" lon="98.901673">
				<ele>566.366543</ele>
				<time>2019-01-20T02:59:59Z</time>
			</trkpt>
			<trkpt lat="18.882544" lon="98.901520">
				<ele>564.339443</ele>
				<time>2019-01-20T03:00:07Z</time>
			</trkpt>
			<trkpt lat="18.882684" lon="98.901390">
				<ele>561.770168</ele>
				<time>2019-01-20T03:00:15Z</time>
			</trkpt>
			<trkpt lat="18.882821" lon="98.901248">
				<ele>559.727261</ele>
				<time>2019-01-20T03:00:21Z</time>
			</trkpt>
			<trkpt lat="18.882986" lon="98.901128">
				<ele>557.379482</ele>
				<time>2019-01-20T03:00:27Z</time>
			</trkpt>
			<trkpt lat="18.883166" lon="98.901026">
				<ele>556.332668</ele>
				<time>2019-01-20T03:00:33Z</time>
			</trkpt>
			<trkpt lat="18.883363" lon="98.901020">
				<ele>552.477749</ele>
				<time>2019-01-20T03:00:40Z</time>
			</trkpt>
			<trkpt lat="18.883533" lon="98.900925">
				<ele>544.630703</ele>
				<time>2019-01-20T03:00:50Z</time>
			</trkpt>
			<trkpt lat="18.883699" lon="98.900820">
				<ele>535.460049</ele>
				<time>2019-01-20T03:01:02Z</time>
			</trkpt>
			<trkpt lat="18.883881" lon="98.900853">
				<ele>525.520473</ele>
				<time>2019-01-20T03:01:15Z</time>
			</trkpt>
			<trkpt lat="18.884020" lon="98.901008">
				<ele>519.665859</ele>
				<time>2019-01-20T03:01:25Z</time>
			</trkpt>
			<trkpt lat="18.884146" lon="98.901150">
				<ele>518.222622</ele>
				<time>2019-01-20T03:01:31Z</time>
			</trkpt>
			<trkpt lat="18.884334" lon="98.901166">
				<ele>514.539394</ele>
				<time>2019-01-20T03:01:37Z</time>
			</trkpt>
			<trkpt lat="18.884487" lon="98.901063">
				<ele>510.972378</ele>
				<time>2019-01-20T03:01:43Z</time>
			</trkpt>
			<trkpt lat="18.884323" lon="98.900981">
				<ele>507.294521</ele>
				<time>2019-01-20T03:01:51Z</time>
			</trkpt>
			<trkpt lat="18.884248" lon="98.900804">
				<ele>500.952847</ele>
				<time>2019-01-20T03:02:03Z</time>
			</trkpt>
			<trkpt lat="18.884355" lon="98.900631">
				<ele>499.549404</ele>
				<time>2019-01-20T03:02:24Z</time>
			</trkpt>
			<trkpt lat="18.884523" lon="98.900484">
				<ele>495.652920</ele>
				<time>2019-01-20T03:02:30Z</time>
			</trkpt>
			<trkpt lat="18.884606" lon="98.900299">
				<ele>497.104946</ele>
				<time>2019-01-20T03:02:36Z</time>
			</trkpt>
			<trkpt lat="18.884624" lon="98.900107">
				<ele>498.360561</ele>
				<time>2019-01-20T03:02:42Z</time>
			</trkpt>
			<trkpt lat="18.884800" lon="98.900154">
				<ele>496.796597</ele>
				<time>2019-01-20T03:02:51Z</time>
			</trkpt>
			<trkpt lat="18.884935" lon="98.900294">
				<ele>494.674160</ele>
				<time>2019-01-20T03:02:57Z</time>
			</trkpt>
			<trkpt lat="18.885139" lon="98.900389">
				<ele>493.334011</ele>
				<time>2019-01-20T03:03:01Z</time>
			</trkpt>
			<trkpt lat="18.885364" lon="98.900416">
				<ele>493.426723</ele>
				<time>2019-01-20T03:03:05Z</time>
			</trkpt>
			<trkpt lat="18.885545" lon="98.900460">
				<ele>492.842373</ele>
				<time>2019-01-20T03:03:09Z</time>
			</trkpt>
			<trkpt lat="18.885626" lon="98.900655">
				<ele>496.143642</ele>
				<time>2019-01-20T03:03:15Z</time>
			</trkpt>
			<trkpt lat="18.885770" lon="98.900798">
				<ele>493.423733</ele>
				<time>2019-01-20T03:03:22Z</time>
			</trkpt>
			<trkpt lat="18.885942" lon="98.900893">
				<ele>492.423428</ele>
				<time>2019-01-20T03:03:27Z</time>
			</trkpt>
			<trkpt lat="18.886135" lon="98.900940">
				<ele>492.314907</ele>
				<time>2019-01-20T03:03:32Z</time>
			</trkpt>
			<trkpt lat="18.886297" lon="98.901026">
				<ele>493.489407</ele>
				<time>2019-01-20T03:03:38Z</time>
			</trkpt>
			<trkpt lat="18.886470" lon="98.901174">
				<ele>493.210781</ele>
				<time>2019-01-20T03:03:45Z</time>
			</trkpt>
			<trkpt lat="18.886560" lon="98.901377">
				<ele>493.824917</ele>
				<time>2019-01-20T03:03:50Z</time>
			</trkpt>
			<trkpt lat="18.886668" lon="98.901530">
				<ele>492.550930</ele>
				<time>2019-01-20T03:03:54Z</time>
			</trkpt>
			<trkpt lat="18.886848" lon="98.901707">
				<ele>489.546352</ele>
				<time>2019-01-20T03:03:58Z</time>
			</trkpt>
			<trkpt lat="18.887016" lon="98.901842">
				<ele>486.548000</ele>
				<time>2019-01-20T03:04:03Z</time>
			</trkpt>
			<trkpt lat="18.887133" lon="98.902003">
				<ele>487.773403</ele>
				<time>2019-01-20T03:04:08Z</time>
			</trkpt>
			<trkpt lat="18.887222" lon="98.902197">
				<ele>487.522182</ele>
				<time>2019-01-20T03:04:14Z</time>
			</trkpt>
			<trkpt lat="18.887213" lon="98.902423">
				<ele>483.518826</ele>
				<time>2019-01-20T03:04:19Z</time>
			</trkpt>
			<trkpt lat="18.887231" lon="98.902637">
				<ele>482.713833</ele>
				<time>2019-01-20T03:04:23Z</time>
			</trkpt>
			<trkpt lat="18.887286" lon="98.902840">
				<ele>483.657314</ele>
				<time>2019-01-20T03:04:26Z</time>
			</trkpt>
			<trkpt lat="18.887327" lon="98.903046">
				<ele>485.010830</ele>
				<time>2019-01-20T03:04:30Z</time>
			</trkpt>
			<trkpt lat="18.887402" lon="98.903237">
				<ele>484.827297</ele>
				<time>2019-01-20T03:04:35Z</time>
			</trkpt>
			<trkpt lat="18.887466" lon="98.903427">
				<ele>481.139858</ele>
				<time>2019-01-20T03:04:41Z</time>
			</trkpt>
			<trkpt lat="18.887545" lon="98.903627">
				<ele>479.839565</ele>
				<time>2019-01-20T03:04:46Z</time>
			</trkpt>
			<trkpt lat="18.887751" lon="98.903683">
				<ele>477.231655</ele>
				<time>2019-01-20T03:04:51Z</time>
			</trkpt>
			<trkpt lat="18.887948" lon="98.903689">
				<ele>477.515347</ele>
				<time>2019-01-20T03:04:57Z</time>
			</trkpt>
			<trkpt lat="18.888133" lon="98.903821">
				<ele>477.735683</ele>
				<time>2019-01-20T03:05:03Z</time>
			</trkpt>
			<trkpt lat="18.888286" lon="98.903926">
				<ele>475.326077</ele>
				<time>2019-01-20T03:05:07Z</time>
			</trkpt>
			<trkpt lat="18.888464" lon="98.904034">
				<ele>475.755093</ele>
				<time>2019-01-20T03:05:12Z</time>
			</trkpt>
			<trkpt lat="18.888645" lon="98.904147">
				<ele>474.972378</ele>
				<time>2019-01-20T03:05:18Z</time>
			</trkpt>
			<trkpt lat="18.888769" lon="98.904325">
				<ele>474.308559</ele>
				<time>2019-01-20T03:05:24Z</time>
			</trkpt>
			<trkpt lat="18.888954" lon="98.904399">
				<ele>474.165493</ele>
				<time>2019-01-20T03:05:29Z</time>
			</trkpt>
			<trkpt lat="18.889108" lon="98.904532">
				<ele>472.232876</ele>
				<time>2019-01-20T03:05:35Z</time>
			</trkpt>
			<trkpt lat="18.889269" lon="98.904642">
				<ele>472.305325</ele>
				<time>2019-01-20T03:05:40Z</time>
			</trkpt>
			<trkpt lat="18.889457" lon="98.904707">
				<ele>468.884731</ele>
				<time>2019-01-20T03:05:46Z</time>
			</trkpt>
			<trkpt lat="18.889633" lon="98.904772">
				<ele>468.142544</ele>
				<time>2019-01-20T03:05:51Z</time>
			</trkpt>
			<trkpt lat="18.889727" lon="98.904948">
				<ele>468.360378</ele>
				<time>2019-01-20T03:05:56Z</time>
			</trkpt>
			<trkpt lat="18.889907" lon="98.904973">
				<ele>465.707973</ele>
				<time>2019-01-20T03:05:59Z</time>
			</trkpt>
			<trkpt lat="18.890126" lon="98.904901">
				<ele>466.616543</ele>
				<time>2019-01-20T03:06:03Z</time>
			</trkpt>
			<trkpt lat="18.890285" lon="98.904766">
				<ele>468.756069</ele>
				<time>2019-01-20T03:06:08Z</time>
			</trkpt>
			<trkpt lat="18.890464" lon="98.904725">
				<ele>468.967800</ele>
				<time>2019-01-20T03:06:13Z</time>
			</trkpt>
			<trkpt lat="18.890642" lon="98.904782">
				<ele>471.129482</ele>
				<time>2019-01-20T03:06:20Z</time>
			</trkpt>
			<trkpt lat="18.890765" lon="98.904929">
				<ele>472.405239</ele>
				<time>2019-01-20T03:06:26Z</time>
			</trkpt>
			<trkpt lat="18.890803" lon="98.905133">
				<ele>473.906948</ele>
				<time>2019-01-20T03:06:28Z</time>
			</trkpt>
			<trkpt lat="18.890907" lon="98.905299">
				<ele>475.438076</ele>
				<time>2019-01-20T03:06:33Z</time>
			</trkpt>
			<trkpt lat="18.891068" lon="98.905426">
				<ele>477.360928</ele>
				<time>2019-01-20T03:06:39Z</time>
			</trkpt>
			<trkpt lat="18.891195" lon="98.905564">
				<ele>479.568081</ele>
				<time>2019-01-20T03:06:46Z</time>
			</trkpt>
			<trkpt lat="18.891377" lon="98.905570">
				<ele>486.778286</ele>
				<time>2019-01-20T03:07:50Z</time>
			</trkpt>
			<trkpt lat="18.891554" lon="98.905464">
				<ele>487.193935</ele>
				<time>2019-01-20T03:07:57Z</time>
			</trkpt>
			<trkpt lat="18.891695" lon="98.905308">
				<ele>485.801357</ele>
				<time>2019-01-20T03:08:04Z</time>
			</trkpt>
			<trkpt lat="18.891808" lon="98.905153">
				<ele>484.536343</ele>
				<time>2019-01-20T03:08:10Z</time>
			</trkpt>
			<trkpt lat="18.891953" lon="98.905038">
				<ele>482.614101</ele>
				<time>2019-01-20T03:08:18Z</time>
			</trkpt>
			<trkpt lat="18.892103" lon="98.904924">
				<ele>482.041103</ele>
				<time>2019-01-20T03:08:26Z</time>
			</trkpt>
			<trkpt lat="18.892295" lon="98.904892">
				<ele>481.827480</ele>
				<time>2019-01-20T03:08:34Z</time>
			</trkpt>
			<trkpt lat="18.892483" lon="98.904919">
				<ele>479.451015</ele>
				<time>2019-01-20T03:08:51Z</time>
			</trkpt>
			<trkpt lat="18.892681" lon="98.904879">
				<ele>478.080410</ele>
				<time>2019-01-20T03:09:03Z</time>
			</trkpt>
			<trkpt lat="18.892847" lon="98.904953">
				<ele>478.022793</ele>
				<time>2019-01-20T03:09:09Z</time>
			</trkpt>
			<trkpt lat="18.893050" lon="98.905044">
				<ele>478.000881</ele>
				<time>2019-01-20T03:09:14Z</time>
			</trkpt>
			<trkpt lat="18.893221" lon="98.905111">
				<ele>477.818691</ele>
				<time>2019-01-20T03:09:20Z</time>
			</trkpt>
			<trkpt lat="18.893391" lon="98.905185">
				<ele>477.692715</ele>
				<time>2019-01-20T03:09:28Z</time>
			</trkpt>
			<trkpt lat="18.893553" lon="98.905278">
				<ele>475.176235</ele>
				<time>2019-01-20T03:10:08Z</time>
			</trkpt>
			<trkpt lat="18.893741" lon="98.905311">
				<ele>476.963711</ele>
				<time>2019-01-20T03:10:15Z</time>
			</trkpt>
			<trkpt lat="18.893923" lon="98.905300">
				<ele>476.723660</ele>
				<time>2019-01-20T03:10:24Z</time>
			</trkpt>
			<trkpt lat="18.894126" lon="98.905322">
				<ele>475.240322</ele>
				<time>2019-01-20T03:10:32Z</time>
			</trkpt>
			<trkpt lat="18.894313" lon="98.905276">
				<ele>473.011196</ele>
				<time>2019-01-20T03:10:41Z</time>
			</trkpt>
			<trkpt lat="18.894487" lon="98.905205">
				<ele>471.896572</ele>
				<time>2019-01-20T03:10:49Z</time>
			</trkpt>
			<trkpt lat="18.894667" lon="98.905237">
				<ele>469.477383</ele>
				<time>2019-01-20T03:12:11Z</time>
			</trkpt>
			<trkpt lat="18.894838" lon="98.905315">
				<ele>466.350918</ele>
				<time>2019-01-20T03:12:30Z</time>
			</trkpt>
			<trkpt lat="18.895020" lon="98.905395">
				<ele>464.046230</ele>
				<time>2019-01-20T03:12:40Z</time>
			</trkpt>
			<trkpt lat="18.895186" lon="98.905492">
				<ele>461.908474</ele>
				<time>2019-01-20T03:12:48Z</time>
			</trkpt>
			<trkpt lat="18.895380" lon="98.905453">
				<ele>460.558559</ele>
				<time>2019-01-20T03:12:54Z</time>
			</trkpt>
			<trkpt lat="18.895559" lon="98.905414">
				<ele>460.154140</ele>
				<time>2019-01-20T03:13:01Z</time>
			</trkpt>
			<trkpt lat="18.895751" lon="98.905381">
				<ele>457.733852</ele>
				<time>2019-01-20T03:13:06Z</time>
			</trkpt>
			<trkpt lat="18.895948" lon="98.905357">
				<ele>455.596645</ele>
				<time>2019-01-20T03:13:12Z</time>
			</trkpt>
			<trkpt lat="18.896134" lon="98.905344">
				<ele>452.528286</ele>
				<time>2019-01-20T03:13:19Z</time>
			</trkpt>
			<trkpt lat="18.896319" lon="98.905370">
				<ele>450.165249</ele>
				<time>2019-01-20T03:13:26Z</time>
			</trkpt>
			<trkpt lat="18.896500" lon="98.905290">
				<ele>447.411953</ele>
				<time>2019-01-20T03:13:32Z</time>
			</trkpt>
			<trkpt lat="18.896688" lon="98.905226">
				<ele>445.952480</ele>
				<time>2019-01-20T03:13:39Z</time>
			</trkpt>
			<trkpt lat="18.896868" lon="98.905304">
				<ele>443.062466</ele>
				<time>2019-01-20T03:13:49Z</time>
			</trkpt>
			<trkpt lat="18.897045" lon="98.905403">
				<ele>440.208584</ele>
				<time>2019-01-20T03:13:55Z</time>
			</trkpt>
			<trkpt lat="18.897242" lon="98.905439">
				<ele>438.522671</ele>
				<time>2019-01-20T03:14:00Z</time>
			</trkpt>
			<trkpt lat="18.897451" lon="98.905486">
				<ele>437.216152</ele>
				<time>2019-01-20T03:14:04Z</time>
			</trkpt>
			<trkpt lat="18.897652" lon="98.905497">
				<ele>431.944424</ele>
				<time>2019-01-20T03:14:10Z</time>
			</trkpt>
			<trkpt lat="18.897849" lon="98.905555">
				<ele>411.729092</ele>
				<time>2019-01-20T03:14:15Z</time>
			</trkpt>
			<trkpt lat="18.898023" lon="98.905660">
				<ele>409.977749</ele>
				<time>2019-01-20T03:14:19Z</time>
			</trkpt>
			<trkpt lat="18.898188" lon="98.905781">
				<ele>407.070889</ele>
				<time>2019-01-20T03:14:24Z</time>
			</trkpt>
			<trkpt lat="18.898347" lon="98.905896">
				<ele>403.075893</ele>
				<time>2019-01-20T03:14:30Z</time>
			</trkpt>
			<trkpt lat="18.898505" lon="98.905991">
				<ele>400.656216</ele>
				<time>2019-01-20T03:14:36Z</time>
			</trkpt>
			<trkpt lat="18.898662" lon="98.906090">
				<ele>397.511501</ele>
				<time>2019-01-20T03:14:40Z</time>
			</trkpt>
			<trkpt lat="18.898808" lon="98.906227">
				<ele>393.687099</ele>
				<time>2019-01-20T03:14:44Z</time>
			</trkpt>
			<trkpt lat="18.898933" lon="98.906369">
				<ele>390.684475</ele>
				<time>2019-01-20T03:14:48Z</time>
			</trkpt>
			<trkpt lat="18.899078" lon="98.906534">
				<ele>388.689602</ele>
				<time>2019-01-20T03:14:52Z</time>
			</trkpt>
			<trkpt lat="18.899232" lon="98.906635">
				<ele>387.336514</ele>
				<time>2019-01-20T03:14:56Z</time>
			</trkpt>
			<trkpt lat="18.899438" lon="98.906723">
				<ele>383.581753</ele>
				<time>2019-01-20T03:15:00Z</time>
			</trkpt>
			<trkpt lat="18.899656" lon="98.906801">
				<ele>380.024502</ele>
				<time>2019-01-20T03:15:04Z</time>
			</trkpt>
			<trkpt lat="18.899854" lon="98.906913">
				<ele>378.840786</ele>
				<time>2019-01-20T03:15:08Z</time>
			</trkpt>
			<trkpt lat="18.900007" lon="98.907024">
				<ele>374.733913</ele>
				<time>2019-01-20T03:15:11Z</time>
			</trkpt>
			<trkpt lat="18.900156" lon="98.907193">
				<ele>369.558376</ele>
				<time>2019-01-20T03:15:16Z</time>
			</trkpt>
			<trkpt lat="18.900281" lon="98.907378">
				<ele>367.165310</ele>
				<time>2019-01-20T03:15:20Z</time>
			</trkpt>
			<trkpt lat="18.900359" lon="98.907581">
				<ele>365.530422</ele>
				<time>2019-01-20T03:15:25Z</time>
			</trkpt>
			<trkpt lat="18.900512" lon="98.907741">
				<ele>361.471035</ele>
				<time>2019-01-20T03:15:32Z</time>
			</trkpt>
			<trkpt lat="18.900722" lon="98.907680">
				<ele>361.273525</ele>
				<time>2019-01-20T03:15:37Z</time>
			</trkpt>
			<trkpt lat="18.900913" lon="98.907665">
				<ele>360.251980</ele>
				<time>2019-01-20T03:15:43Z</time>
			</trkpt>
			<trkpt lat="18.901099" lon="98.907680">
				<ele>359.622768</ele>
				<time>2019-01-20T03:15:49Z</time>
			</trkpt>
			<trkpt lat="18.901324" lon="98.907708">
				<ele>357.947842</ele>
				<time>2019-01-20T03:15:52Z</time>
			</trkpt>
			<trkpt lat="18.901511" lon="98.907784">
				<ele>357.029934</ele>
				<time>2019-01-20T03:15:56Z</time>
			</trkpt>
			<trkpt lat="18.901651" lon="98.907938">
				<ele>355.345669</ele>
				<time>2019-01-20T03:16:00Z</time>
			</trkpt>
			<trkpt lat="18.901808" lon="98.908085">
				<ele>354.446682</ele>
				<time>2019-01-20T03:16:04Z</time>
			</trkpt>
			<trkpt lat="18.901829" lon="98.908329">
				<ele>353.232143</ele>
				<time>2019-01-20T03:16:08Z</time>
			</trkpt>
			<trkpt lat="18.901856" lon="98.908564">
				<ele>354.019619</ele>
				<time>2019-01-20T03:16:12Z</time>
			</trkpt>
			<trkpt lat="18.901952" lon="98.908747">
				<ele>353.368740</ele>
				<time>2019-01-20T03:16:15Z</time>
			</trkpt>
			<trkpt lat="18.902069" lon="98.908957">
				<ele>351.609524</ele>
				<time>2019-01-20T03:16:19Z</time>
			</trkpt>
			<trkpt lat="18.902141" lon="98.909132">
				<ele>350.998867</ele>
				<time>2019-01-20T03:16:22Z</time>
			</trkpt>
			<trkpt lat="18.902217" lon="98.909322">
				<ele>351.636013</ele>
				<time>2019-01-20T03:16:26Z</time>
			</trkpt>
			<trkpt lat="18.902343" lon="98.909475">
				<ele>352.852566</ele>
				<time>2019-01-20T03:16:31Z</time>
			</trkpt>
			<trkpt lat="18.902454" lon="98.909663">
				<ele>352.978359</ele>
				<time>2019-01-20T03:16:35Z</time>
			</trkpt>
			<trkpt lat="18.902472" lon="98.909860">
				<ele>353.127651</ele>
				<time>2019-01-20T03:16:38Z</time>
			</trkpt>
			<trkpt lat="18.902397" lon="98.910081">
				<ele>352.600796</ele>
				<time>2019-01-20T03:16:42Z</time>
			</trkpt>
			<trkpt lat="18.902344" lon="98.910337">
				<ele>351.897610</ele>
				<time>2019-01-20T03:16:46Z</time>
			</trkpt>
			<trkpt lat="18.902346" lon="98.910568">
				<ele>352.243618</ele>
				<time>2019-01-20T03:16:49Z</time>
			</trkpt>
			<trkpt lat="18.902401" lon="98.910785">
				<ele>351.831509</ele>
				<time>2019-01-20T03:16:53Z</time>
			</trkpt>
			<trkpt lat="18.902458" lon="98.911020">
				<ele>351.974697</ele>
				<time>2019-01-20T03:16:57Z</time>
			</trkpt>
			<trkpt lat="18.902581" lon="98.911196">
				<ele>352.329678</ele>
				<time>2019-01-20T03:17:00Z</time>
			</trkpt>
			<trkpt lat="18.902694" lon="98.911355">
				<ele>352.697598</ele>
				<time>2019-01-20T03:17:05Z</time>
			</trkpt>
			<trkpt lat="18.902824" lon="98.911495">
				<ele>352.826992</ele>
				<time>2019-01-20T03:17:10Z</time>
			</trkpt>
			<trkpt lat="18.902964" lon="98.911638">
				<ele>353.425014</ele>
				<time>2019-01-20T03:17:13Z</time>
			</trkpt>
			<trkpt lat="18.903126" lon="98.911822">
				<ele>354.192226</ele>
				<time>2019-01-20T03:17:17Z</time>
			</trkpt>
			<trkpt lat="18.903273" lon="98.911970">
				<ele>354.058926</ele>
				<time>2019-01-20T03:17:20Z</time>
			</trkpt>
			<trkpt lat="18.903441" lon="98.912077">
				<ele>353.696377</ele>
				<time>2019-01-20T03:17:23Z</time>
			</trkpt>
			<trkpt lat="18.903599" lon="98.912223">
				<ele>352.505642</ele>
				<time>2019-01-20T03:17:27Z</time>
			</trkpt>
			<trkpt lat="18.903722" lon="98.912429">
				<ele>352.356289</ele>
				<time>2019-01-20T03:17:31Z</time>
			</trkpt>
			<trkpt lat="18.903855" lon="98.912613">
				<ele>352.162502</ele>
				<time>2019-01-20T03:17:34Z</time>
			</trkpt>
			<trkpt lat="18.903982" lon="98.912804">
				<ele>351.674831</ele>
				<time>2019-01-20T03:17:37Z</time>
			</trkpt>
			<trkpt lat="18.904159" lon="98.912978">
				<ele>351.845181</ele>
				<time>2019-01-20T03:17:40Z</time>
			</trkpt>
			<trkpt lat="18.904295" lon="98.913108">
				<ele>352.378750</ele>
				<time>2019-01-20T03:17:43Z</time>
			</trkpt>
			<trkpt lat="18.904480" lon="98.913189">
				<ele>352.063503</ele>
				<time>2019-01-20T03:17:50Z</time>
			</trkpt>
			<trkpt lat="18.904687" lon="98.913174">
				<ele>352.696865</ele>
				<time>2019-01-20T03:17:54Z</time>
			</trkpt>
			<trkpt lat="18.904886" lon="98.913204">
				<ele>352.079800</ele>
				<time>2019-01-20T03:17:59Z</time>
			</trkpt>
			<trkpt lat="18.905100" lon="98.913254">
				<ele>351.984585</ele>
				<time>2019-01-20T03:18:03Z</time>
			</trkpt>
			<trkpt lat="18.905325" lon="98.913270">
				<ele>351.712856</ele>
				<time>2019-01-20T03:18:06Z</time>
			</trkpt>
			<trkpt lat="18.905509" lon="98.913300">
				<ele>351.505398</ele>
				<time>2019-01-20T03:18:08Z</time>
			</trkpt>
			<trkpt lat="18.905713" lon="98.913336">
				<ele>350.938564</ele>
				<time>2019-01-20T03:18:10Z</time>
			</trkpt>
			<trkpt lat="18.905892" lon="98.913370">
				<ele>351.162258</ele>
				<time>2019-01-20T03:18:12Z</time>
			</trkpt>
			<trkpt lat="18.906100" lon="98.913409">
				<ele>351.314907</ele>
				<time>2019-01-20T03:18:14Z</time>
			</trkpt>
			<trkpt lat="18.906321" lon="98.913450">
				<ele>352.425137</ele>
				<time>2019-01-20T03:18:16Z</time>
			</trkpt>
			<trkpt lat="18.906523" lon="98.913486">
				<ele>352.536282</ele>
				<time>2019-01-20T03:18:18Z</time>
			</trkpt>
			<trkpt lat="18.906714" lon="98.913516">
				<ele>351.924892</ele>
				<time>2019-01-20T03:18:20Z</time>
			</trkpt>
			<trkpt lat="18.906922" lon="98.913541">
				<ele>351.396572</ele>
				<time>2019-01-20T03:18:22Z</time>
			</trkpt>
			<trkpt lat="18.907109" lon="98.913584">
				<ele>350.178188</ele>
				<time>2019-01-20T03:18:24Z</time>
			</trkpt>
			<trkpt lat="18.907364" lon="98.913691">
				<ele>349.485439</ele>
				<time>2019-01-20T03:18:27Z</time>
			</trkpt>
			<trkpt lat="18.907541" lon="98.913773">
				<ele>348.950466</ele>
				<time>2019-01-20T03:18:29Z</time>
			</trkpt>
			<trkpt lat="18.907708" lon="98.913850">
				<ele>348.326992</ele>
				<time>2019-01-20T03:18:31Z</time>
			</trkpt>
			<trkpt lat="18.907879" lon="98.913928">
				<ele>347.332119</ele>
				<time>2019-01-20T03:18:33Z</time>
			</trkpt>
			<trkpt lat="18.908063" lon="98.913921">
				<ele>346.661465</ele>
				<time>2019-01-20T03:18:37Z</time>
			</trkpt>
			<trkpt lat="18.908264" lon="98.913958">
				<ele>346.401699</ele>
				<time>2019-01-20T03:18:38Z</time>
			</trkpt>
			<trkpt lat="18.908441" lon="98.914038">
				<ele>345.977505</ele>
				<time>2019-01-20T03:18:42Z</time>
			</trkpt>
			<trkpt lat="18.908571" lon="98.913906">
				<ele>345.421230</ele>
				<time>2019-01-20T03:18:43Z</time>
			</trkpt>
			<trkpt lat="18.908646" lon="98.914113">
				<ele>343.057034</ele>
				<time>2019-01-20T03:19:05Z</time>
			</trkpt>
			<trkpt lat="18.908691" lon="98.914301">
				<ele>342.336208</ele>
				<time>2019-01-20T03:19:08Z</time>
			</trkpt>
			<trkpt lat="18.908762" lon="98.914518">
				<ele>340.940395</ele>
				<time>2019-01-20T03:19:12Z</time>
			</trkpt>
			<trkpt lat="18.908752" lon="98.914772">
				<ele>340.856045</ele>
				<time>2019-01-20T03:19:16Z</time>
			</trkpt>
			<trkpt lat="18.908728" lon="98.915014">
				<ele>342.544765</ele>
				<time>2019-01-20T03:19:19Z</time>
			</trkpt>
			<trkpt lat="18.908755" lon="98.915287">
				<ele>342.281216</ele>
				<time>2019-01-20T03:19:22Z</time>
			</trkpt>
			<trkpt lat="18.908806" lon="98.915548">
				<ele>341.640591</ele>
				<time>2019-01-20T03:19:25Z</time>
			</trkpt>
			<trkpt lat="18.908842" lon="98.915738">
				<ele>340.790005</ele>
				<time>2019-01-20T03:19:28Z</time>
			</trkpt>
			<trkpt lat="18.908880" lon="98.915935">
				<ele>340.351284</ele>
				<time>2019-01-20T03:19:30Z</time>
			</trkpt>
			<trkpt lat="18.909033" lon="98.916176">
				<ele>340.565884</ele>
				<time>2019-01-20T03:19:33Z</time>
			</trkpt>
			<trkpt lat="18.909246" lon="98.916261">
				<ele>339.953884</ele>
				<time>2019-01-20T03:19:35Z</time>
			</trkpt>
			<trkpt lat="18.909465" lon="98.916348">
				<ele>339.553188</ele>
				<time>2019-01-20T03:19:37Z</time>
			</trkpt>
			<trkpt lat="18.909680" lon="98.916434">
				<ele>339.372890</ele>
				<time>2019-01-20T03:19:39Z</time>
			</trkpt>
			<trkpt lat="18.909874" lon="98.916505">
				<ele>339.770473</ele>
				<time>2019-01-20T03:19:41Z</time>
			</trkpt>
			<trkpt lat="18.910040" lon="98.916617">
				<ele>340.364346</ele>
				<time>2019-01-20T03:19:44Z</time>
			</trkpt>
			<trkpt lat="18.910056" lon="98.916955">
				<ele>341.037502</ele>
				<time>2019-01-20T03:19:47Z</time>
			</trkpt>
			<trkpt lat="18.910066" lon="98.917217">
				<ele>341.340420</ele>
				<time>2019-01-20T03:19:49Z</time>
			</trkpt>
			<trkpt lat="18.910074" lon="98.917494">
				<ele>341.634121</ele>
				<time>2019-01-20T03:19:51Z</time>
			</trkpt>
			<trkpt lat="18.910077" lon="98.917780">
				<ele>341.419399</ele>
				<time>2019-01-20T03:19:53Z</time>
			</trkpt>
			<trkpt lat="18.910081" lon="98.918054">
				<ele>342.234280</ele>
				<time>2019-01-20T03:19:55Z</time>
			</trkpt>
			<trkpt lat="18.910096" lon="98.918329">
				<ele>342.052578</ele>
				<time>2019-01-20T03:19:57Z</time>
			</trkpt>
			<trkpt lat="18.910138" lon="98.918626">
				<ele>341.579983</ele>
				<time>2019-01-20T03:19:59Z</time>
			</trkpt>
			<trkpt lat="18.910203" lon="98.918921">
				<ele>341.333523</ele>
				<time>2019-01-20T03:20:01Z</time>
			</trkpt>
			<trkpt lat="18.910264" lon="98.919182">
				<ele>340.953091</ele>
				<time>2019-01-20T03:20:03Z</time>
			</trkpt>
			<trkpt lat="18.910322" lon="98.919424">
				<ele>339.830044</ele>
				<time>2019-01-20T03:20:05Z</time>
			</trkpt>
			<trkpt lat="18.910381" lon="98.919669">
				<ele>339.267300</ele>
				<time>2019-01-20T03:20:07Z</time>
			</trkpt>
			<trkpt lat="18.910450" lon="98.919945">
				<ele>339.176662</ele>
				<time>2019-01-20T03:20:09Z</time>
			</trkpt>
			<trkpt lat="18.910519" lon="98.920222">
				<ele>338.619045</ele>
				<time>2019-01-20T03:20:11Z</time>
			</trkpt>
			<trkpt lat="18.910589" lon="98.920509">
				<ele>339.075710</ele>
				<time>2019-01-20T03:20:13Z</time>
			</trkpt>
			<trkpt lat="18.910644" lon="98.920797">
				<ele>338.475674</ele>
				<time>2019-01-20T03:20:15Z</time>
			</trkpt>
			<trkpt lat="18.910682" lon="98.921061">
				<ele>337.125332</ele>
				<time>2019-01-20T03:20:17Z</time>
			</trkpt>
			<trkpt lat="18.910727" lon="98.921340">
				<ele>336.335049</ele>
				<time>2019-01-20T03:20:19Z</time>
			</trkpt>
			<trkpt lat="18.910780" lon="98.921645">
				<ele>334.798183</ele>
				<time>2019-01-20T03:20:21Z</time>
			</trkpt>
			<trkpt lat="18.910832" lon="98.921944">
				<ele>334.020535</ele>
				<time>2019-01-20T03:20:23Z</time>
			</trkpt>
			<trkpt lat="18.910883" lon="98.922231">
				<ele>333.772060</ele>
				<time>2019-01-20T03:20:25Z</time>
			</trkpt>
			<trkpt lat="18.910934" lon="98.922524">
				<ele>333.854702</ele>
				<time>2019-01-20T03:20:27Z</time>
			</trkpt>
			<trkpt lat="18.910980" lon="98.922788">
				<ele>334.479946</ele>
				<time>2019-01-20T03:20:29Z</time>
			</trkpt>
			<trkpt lat="18.911029" lon="98.923069">
				<ele>334.215542</ele>
				<time>2019-01-20T03:20:31Z</time>
			</trkpt>
			<trkpt lat="18.911076" lon="98.923334">
				<ele>333.478481</ele>
				<time>2019-01-20T03:20:33Z</time>
			</trkpt>
			<trkpt lat="18.911116" lon="98.923584">
				<ele>333.629848</ele>
				<time>2019-01-20T03:20:35Z</time>
			</trkpt>
			<trkpt lat="18.911148" lon="98.923841">
				<ele>333.290371</ele>
				<time>2019-01-20T03:20:37Z</time>
			</trkpt>
			<trkpt lat="18.911172" lon="98.924040">
				<ele>333.742031</ele>
				<time>2019-01-20T03:20:39Z</time>
			</trkpt>
			<trkpt lat="18.911187" lon="98.924350">
				<ele>333.787930</ele>
				<time>2019-01-20T03:20:41Z</time>
			</trkpt>
			<trkpt lat="18.911197" lon="98.924610">
				<ele>333.760708</ele>
				<time>2019-01-20T03:20:43Z</time>
			</trkpt>
			<trkpt lat="18.911202" lon="98.924867">
				<ele>332.953823</ele>
				<time>2019-01-20T03:20:45Z</time>
			</trkpt>
			<trkpt lat="18.911208" lon="98.925121">
				<ele>332.477749</ele>
				<time>2019-01-20T03:20:47Z</time>
			</trkpt>
			<trkpt lat="18.911213" lon="98.925358">
				<ele>332.288052</ele>
				<time>2019-01-20T03:20:49Z</time>
			</trkpt>
			<trkpt lat="18.911218" lon="98.925579">
				<ele>332.784023</ele>
				<time>2019-01-20T03:20:51Z</time>
			</trkpt>
			<trkpt lat="18.911224" lon="98.925846">
				<ele>334.471218</ele>
				<time>2019-01-20T03:20:54Z</time>
			</trkpt>
			<trkpt lat="18.911239" lon="98.926090">
				<ele>334.665615</ele>
				<time>2019-01-20T03:20:57Z</time>
			</trkpt>
			<trkpt lat="18.911252" lon="98.926292">
				<ele>333.910000</ele>
				<time>2019-01-20T03:21:00Z</time>
			</trkpt>
			<trkpt lat="18.911278" lon="98.926563">
				<ele>332.889492</ele>
				<time>2019-01-20T03:21:03Z</time>
			</trkpt>
			<trkpt lat="18.911341" lon="98.926754">
				<ele>333.556667</ele>
				<time>2019-01-20T03:21:05Z</time>
			</trkpt>
			<trkpt lat="18.911366" lon="98.926999">
				<ele>332.393887</ele>
				<time>2019-01-20T03:21:08Z</time>
			</trkpt>
			<trkpt lat="18.911340" lon="98.927212">
				<ele>331.412319</ele>
				<time>2019-01-20T03:21:10Z</time>
			</trkpt>
			<trkpt lat="18.911306" lon="98.927450">
				<ele>331.882534</ele>
				<time>2019-01-20T03:21:13Z</time>
			</trkpt>
			<trkpt lat="18.911321" lon="98.927650">
				<ele>332.054043</ele>
				<time>2019-01-20T03:21:16Z</time>
			</trkpt>
			<trkpt lat="18.911333" lon="98.927845">
				<ele>330.585781</ele>
				<time>2019-01-20T03:21:19Z</time>
			</trkpt>
			<trkpt lat="18.911257" lon="98.928047">
				<ele>330.607998</ele>
				<time>2019-01-20T03:21:22Z</time>
			</trkpt>
			<trkpt lat="18.911172" lon="98.928257">
				<ele>330.019558</ele>
				<time>2019-01-20T03:21:25Z</time>
			</trkpt>
			<trkpt lat="18.911085" lon="98.928479">
				<ele>330.013699</ele>
				<time>2019-01-20T03:21:28Z</time>
			</trkpt>
			<trkpt lat="18.911008" lon="98.928676">
				<ele>331.175686</ele>
				<time>2019-01-20T03:21:31Z</time>
			</trkpt>
			<trkpt lat="18.910924" lon="98.928890">
				<ele>331.443630</ele>
				<time>2019-01-20T03:21:34Z</time>
			</trkpt>
			<trkpt lat="18.910867" lon="98.929151">
				<ele>330.991421</ele>
				<time>2019-01-20T03:21:38Z</time>
			</trkpt>
			<trkpt lat="18.910829" lon="98.929384">
				<ele>330.211758</ele>
				<time>2019-01-20T03:21:41Z</time>
			</trkpt>
			<trkpt lat="18.910803" lon="98.929652">
				<ele>330.674526</ele>
				<time>2019-01-20T03:21:44Z</time>
			</trkpt>
			<trkpt lat="18.910795" lon="98.929881">
				<ele>331.755947</ele>
				<time>2019-01-20T03:21:47Z</time>
			</trkpt>
			<trkpt lat="18.910817" lon="98.930113">
				<ele>331.774136</ele>
				<time>2019-01-20T03:21:50Z</time>
			</trkpt>
			<trkpt lat="18.910874" lon="98.930363">
				<ele>331.168667</ele>
				<time>2019-01-20T03:21:53Z</time>
			</trkpt>
			<trkpt lat="18.910816" lon="98.930593">
				<ele>330.061611</ele>
				<time>2019-01-20T03:21:59Z</time>
			</trkpt>
			<trkpt lat="18.910648" lon="98.930778">
				<ele>328.968716</ele>
				<time>2019-01-20T03:22:02Z</time>
			</trkpt>
			<trkpt lat="18.910485" lon="98.930980">
				<ele>328.282314</ele>
				<time>2019-01-20T03:22:05Z</time>
			</trkpt>
			<trkpt lat="18.910335" lon="98.931123">
				<ele>328.555019</ele>
				<time>2019-01-20T03:22:07Z</time>
			</trkpt>
			<trkpt lat="18.910173" lon="98.931231">
				<ele>327.364956</ele>
				<time>2019-01-20T03:22:09Z</time>
			</trkpt>
			<trkpt lat="18.909978" lon="98.931336">
				<ele>326.939968</ele>
				<time>2019-01-20T03:22:11Z</time>
			</trkpt>
			<trkpt lat="18.909762" lon="98.931465">
				<ele>326.083035</ele>
				<time>2019-01-20T03:22:14Z</time>
			</trkpt>
			<trkpt lat="18.909566" lon="98.931656">
				<ele>325.866665</ele>
				<time>2019-01-20T03:22:17Z</time>
			</trkpt>
			<trkpt lat="18.909500" lon="98.931833">
				<ele>325.642056</ele>
				<time>2019-01-20T03:22:19Z</time>
			</trkpt>
			<trkpt lat="18.909467" lon="98.932037">
				<ele>325.974941</ele>
				<time>2019-01-20T03:22:21Z</time>
			</trkpt>
			<trkpt lat="18.909427" lon="98.932305">
				<ele>327.530239</ele>
				<time>2019-01-20T03:22:24Z</time>
			</trkpt>
			<trkpt lat="18.909392" lon="98.932531">
				<ele>328.468288</ele>
				<time>2019-01-20T03:22:28Z</time>
			</trkpt>
			<trkpt lat="18.909760" lon="98.932791">
				<ele>329.395840</ele>
				<time>2019-01-20T03:22:35Z</time>
			</trkpt>
			<trkpt lat="18.909998" lon="98.932853">
				<ele>329.770962</ele>
				<time>2019-01-20T03:22:38Z</time>
			</trkpt>
			<trkpt lat="18.910186" lon="98.932904">
				<ele>330.140102</ele>
				<time>2019-01-20T03:22:40Z</time>
			</trkpt>
			<trkpt lat="18.910412" lon="98.932947">
				<ele>329.986538</ele>
				<time>2019-01-20T03:22:43Z</time>
			</trkpt>
			<trkpt lat="18.910599" lon="98.932938">
				<ele>329.062344</ele>
				<time>2019-01-20T03:23:26Z</time>
			</trkpt>
			<trkpt lat="18.910870" lon="98.932963">
				<ele>330.076626</ele>
				<time>2019-01-20T03:23:29Z</time>
			</trkpt>
			<trkpt lat="18.911061" lon="98.933001">
				<ele>330.992641</ele>
				<time>2019-01-20T03:23:31Z</time>
			</trkpt>
			<trkpt lat="18.911277" lon="98.933045">
				<ele>332.085415</ele>
				<time>2019-01-20T03:23:33Z</time>
			</trkpt>
			<trkpt lat="18.911509" lon="98.933094">
				<ele>333.153530</ele>
				<time>2019-01-20T03:23:35Z</time>
			</trkpt>
			<trkpt lat="18.911685" lon="98.933139">
				<ele>334.232754</ele>
				<time>2019-01-20T03:23:37Z</time>
			</trkpt>
			<trkpt lat="18.911877" lon="98.933175">
				<ele>336.257534</ele>
				<time>2019-01-20T03:23:40Z</time>
			</trkpt>
			<trkpt lat="18.912085" lon="98.933159">
				<ele>337.360195</ele>
				<time>2019-01-20T03:23:44Z</time>
			</trkpt>
			<trkpt lat="18.912265" lon="98.933196">
				<ele>337.761684</ele>
				<time>2019-01-20T03:23:54Z</time>
			</trkpt>
			<trkpt lat="18.912310" lon="98.933390">
				<ele>336.859707</ele>
				<time>2019-01-20T03:23:58Z</time>
			</trkpt>
			<trkpt lat="18.912323" lon="98.933640">
				<ele>338.484585</ele>
				<time>2019-01-20T03:24:02Z</time>
			</trkpt>
			<trkpt lat="18.912337" lon="98.933895">
				<ele>339.293423</ele>
				<time>2019-01-20T03:24:05Z</time>
			</trkpt>
			<trkpt lat="18.912352" lon="98.934175">
				<ele>339.916409</ele>
				<time>2019-01-20T03:24:08Z</time>
			</trkpt>
			<trkpt lat="18.912363" lon="98.934380">
				<ele>340.172878</ele>
				<time>2019-01-20T03:24:10Z</time>
			</trkpt>
			<trkpt lat="18.912373" lon="98.934575">
				<ele>340.765102</ele>
				<time>2019-01-20T03:24:12Z</time>
			</trkpt>
			<trkpt lat="18.912401" lon="98.934871">
				<ele>340.336391</ele>
				<time>2019-01-20T03:24:15Z</time>
			</trkpt>
			<trkpt lat="18.912430" lon="98.935152">
				<ele>339.796230</ele>
				<time>2019-01-20T03:24:18Z</time>
			</trkpt>
			<trkpt lat="18.912461" lon="98.935439">
				<ele>340.055202</ele>
				<time>2019-01-20T03:24:21Z</time>
			</trkpt>
			<trkpt lat="18.912485" lon="98.935633">
				<ele>339.865749</ele>
				<time>2019-01-20T03:24:23Z</time>
			</trkpt>
			<trkpt lat="18.912522" lon="98.935879">
				<ele>340.301540</ele>
				<time>2019-01-20T03:24:26Z</time>
			</trkpt>
			<trkpt lat="18.912559" lon="98.936102">
				<ele>340.016689</ele>
				<time>2019-01-20T03:24:29Z</time>
			</trkpt>
			<trkpt lat="18.912592" lon="98.936292">
				<ele>340.276455</ele>
				<time>2019-01-20T03:24:34Z</time>
			</trkpt>
			<trkpt lat="18.912358" lon="98.936308">
				<ele>339.493496</ele>
				<time>2019-01-20T03:24:43Z</time>
			</trkpt>
			<trkpt lat="18.912104" lon="98.936325">
				<ele>340.269497</ele>
				<time>2019-01-20T03:24:47Z</time>
			</trkpt>
			<trkpt lat="18.911849" lon="98.936330">
				<ele>340.446743</ele>
				<time>2019-01-20T03:24:50Z</time>
			</trkpt>
			<trkpt lat="18.911615" lon="98.936303">
				<ele>340.008022</ele>
				<time>2019-01-20T03:24:53Z</time>
			</trkpt>
			<trkpt lat="18.911383" lon="98.936276">
				<ele>338.812283</ele>
				<time>2019-01-20T03:24:56Z</time>
			</trkpt>
			<trkpt lat="18.911163" lon="98.936250">
				<ele>337.777309</ele>
				<time>2019-01-20T03:24:59Z</time>
			</trkpt>
			<trkpt lat="18.910927" lon="98.936224">
				<ele>335.118374</ele>
				<time>2019-01-20T03:25:03Z</time>
			</trkpt>
			<trkpt lat="18.910746" lon="98.936207">
				<ele>333.709316</ele>
				<time>2019-01-20T03:25:06Z</time>
			</trkpt>
			<trkpt lat="18.910564" lon="98.936190">
				<ele>332.721523</ele>
				<time>2019-01-20T03:25:09Z</time>
			</trkpt>
			<trkpt lat="18.910460" lon="98.935992">
				<ele>331.213100</ele>
				<time>2019-01-20T03:25:14Z</time>
			</trkpt>
			<trkpt lat="18.910466" lon="98.935786">
				<ele>331.473171</ele>
				<time>2019-01-20T03:25:17Z</time>
			</trkpt>
			<trkpt lat="18.910473" lon="98.935578">
				<ele>332.248989</ele>
				<time>2019-01-20T03:25:20Z</time>
			</trkpt>
			<trkpt lat="18.910323" lon="98.935437">
				<ele>332.031704</ele>
				<time>2019-01-20T03:25:24Z</time>
			</trkpt>
			<trkpt lat="18.910183" lon="98.935241">
				<ele>331.740505</ele>
				<time>2019-01-20T03:25:27Z</time>
			</trkpt>
			<trkpt lat="18.910098" lon="98.935040">
				<ele>332.419643</ele>
				<time>2019-01-20T03:25:30Z</time>
			</trkpt>
			<trkpt lat="18.910008" lon="98.934826">
				<ele>332.746365</ele>
				<time>2019-01-20T03:25:33Z</time>
			</trkpt>
			<trkpt lat="18.909922" lon="98.934623">
				<ele>331.559536</ele>
				<time>2019-01-20T03:25:36Z</time>
			</trkpt>
			<trkpt lat="18.909836" lon="98.934420">
				<ele>330.842983</ele>
				<time>2019-01-20T03:25:40Z</time>
			</trkpt>
			<trkpt lat="18.909761" lon="98.934245">
				<ele>331.914150</ele>
				<time>2019-01-20T03:25:47Z</time>
			</trkpt>
			<trkpt lat="18.909632" lon="98.934091">
				<ele>329.913296</ele>
				<time>2019-01-20T03:27:44Z</time>
			</trkpt>
			<trkpt lat="18.909728" lon="98.934258">
				<ele>329.128201</ele>
				<time>2019-01-20T03:30:19Z</time>
			</trkpt>
		</trkseg>
	</trk>
</gpx>
